[{"OBJECT_NAME":"TIANQI-21","OBJECT_ID":"2023-135A","EPOCH":"2026-03-09T21:46:55.834752","MEAN_MOTION":14.23085423,"ECCENTRICITY":0.00130966,"INCLINATION":49.9714,"RA_OF_ASC_NODE":210.0306,"ARG_OF_PERICENTER":269.1153,"MEAN_ANOMALY":90.8259,"EPHEMERIS_TYPE":0,"CLASSIFICATION_TYPE":"U","NORAD_CAT_ID":57792,"ELEMENT_SET_NO":999,"REV_AT_EPOCH":13049,"BSTAR":0.00019098246,"MEAN_MOTION_DOT":2.75e-6,"MEAN_MOTION_DDOT":0},{"OBJECT_NAME":"FENGYUN 1C DEB","OBJECT_ID":"1999-025CLZ","EPOCH":"2026-03-07T23:02:39.368832","MEAN_MOTION":13.86993668,"ECCENTRICITY":0.01614815,"INCLINATION":98.814,"RA_OF_ASC_NODE":58.4775,"ARG_OF_PERICENTER":154.2843,"MEAN_ANOMALY":262.5862,"EPHEMERIS_TYPE":0,"CLASSIFICATION_TYPE":"U","NORAD_CAT_ID":31922,"ELEMENT_SET_NO":999,"REV_AT_EPOCH":94198,"BSTAR":0.0014080725,"MEAN_MOTION_DOT":1.787e-5,"MEAN_MOTION_DDOT":0}]
